LEMUR-2-STARLIGHT       
1 66783U 25276DY  26200.74053332  .00003633  00000+0  30086-3 0  9993
2 66783  97.5234 270.2678 0014626  33.6189 326.5960 14.99388782 35078
LEMUR-2-TARTIFLETTE     
1 66784U 25276DZ  26200.73898573  .00003348  00000+0  27785-3 0  9992
2 66784  97.5232 270.2741 0013855  42.2616 317.9673 14.99370705 35073
LEMUR-2-VUKASIN         
1 66785U 25276EA  26200.70570867  .00002194  00000+0  17839-3 0  9990
2 66785  97.5206 270.6077 0002339  39.5355 320.6040 15.00567775 35027
LEMUR-2-HOTSPUR-TOM     
1 66786U 25276EB  26200.73369260  .00002827  00000+0  23595-3 0  9996
2 66786  97.5213 270.2414 0013632  34.0717 326.1379 14.99267468 35004
LEMUR-2-MYRA            
1 66787U 25276EC  26200.73746538  .00003058  00000+0  24574-3 0  9999
2 66787  97.5221 270.5586 0018591  40.4186 319.8416 15.00618344 35093
LEMUR-2 FIKRETDENGIZ    
1 67363U 26004A   26200.46995645  .00002156  00000+0  23756-3 0  9994
2 67363  97.8033 198.5382 0009887  43.8961 316.3040 14.88533773 28080
TWILIGHT-1 OBJECT B     
1 67364U 26004B   26200.71095174  .00000802  00000+0  93768-4 0  9998
2 67364  97.8077 198.7739 0009402  32.8573 327.3226 14.87801709 28126
LEMUR-2-MARIO-SOUSA     
1 67365U 26004C   26200.71805775  .00001908  00000+0  20987-3 0  9995
2 67365  97.8006 198.7777 0009510  44.5315 315.6664 14.88747170 28134
LEMUR-2-SONNENBLUME     
1 67367U 26004E   26200.45285726  .00001294  00000+0  14525-3 0  9995
2 67367  97.8003 198.4871 0009163  46.3070 313.8905 14.88465326 28090
LEMUR-2-WOBLER          
1 67368U 26004F   26200.44143940  .00001781  00000+0  19639-3 0  9998
2 67368  97.8057 198.6312 0009179  37.7579 322.4281 14.88714053 28094
LEMUR-2-GRAM-E-SUE      
1 67370U 26004H   26200.43389006  .00001153  00000+0  12965-3 0  9993
2 67370  97.7989 198.4851 0008348  49.5477 310.6466 14.88599959 28091
LEMUR-2-KATIE           
1 67387U 26004AA  26200.72183435  .00002058  00000+0  21769-3 0  9998
2 67387  97.8049 199.3352 0003072  22.5460 337.5892 14.90271589 28152
LEMUR-2-HCS-BAZUS       
1 67388U 26004AB  26200.25016086  .00001783  00000+0  18935-3 0  9999
2 67388  97.8039 198.8470 0002641  25.2355 334.8991 14.90278599 28081
